CCSDS_OMM_VERS = 2.0
CREATION_DATE  =
ORIGINATOR     =

OBJECT_NAME    = NUSAT-8 (MARIE)
OBJECT_ID      = 2020-003C
CENTER_NAME    = EARTH
REF_FRAME      = TEME
TIME_SYSTEM    = UTC
MEAN_ELEMENT_THEORY = SGP4

EPOCH          = 2020-12-29T11:59:56.951808
MEAN_MOTION    = 15.27990594
ECCENTRICITY   = .0013363
INCLINATION    = 97.2970
RA_OF_ASC_NODE = 66.7438
ARG_OF_PERICENTER = 109.4976
MEAN_ANOMALY   = 15.7307

EPHEMERIS_TYPE = 0
CLASSIFICATION_TYPE = U
NORAD_CAT_ID   = 45018
ELEMENT_SET_NO = 999
REV_AT_EPOCH   = 5332
BSTAR          = .83483E-4
MEAN_MOTION_DOT = .2212E-4
MEAN_MOTION_DDOT = 0

